id,name,lat,lon,address,speciality,emergency,icu,operating_theatre,ventilator,x_ray,opening_hours,website,phone
943246318,मनमोहन मेमोरियल अस्पताल,27.7179394,85.3112441,Dakshinkali,cardiology/others,yes,yes,yes,yes,yes,24/7,http://www.mmchospital.org.np,
1497172311,सैनिक अस्पताल,27.7114391,85.2913209,chhauni kathmandu,cardiology/others,yes,yes,yes,yes,yes,24/7,https://birendrahospital.nepalarmy.mil.np/,
1767445004,Krishna Prasad Hospital,27.6296267,85.5237477,Banepa,,yes,yes,yes,yes,yes,24/7,,
1787063191,ग्लोबल अस्पताल,27.667072,85.3330204,Gwarko Chowk,,yes,yes,yes,yes,yes,24/7,,
1891343745,धन्वन्तरी आयुर्वेद अस्पताल तथा अनुसन्धान केन्द्र,27.7324263,85.3443527,Dhumbarahi,ayurvedic treatment,yes,yes,yes,yes,yes,24/7,,
1898593305,आरोग्य आश्रम,27.7177828,85.3304899,Thirbam Sadak,yoga/ayuveda,yes,yes,yes,yes,yes,24/7,,014412075
1985458243,CIWEC Hospital,27.7202714,85.3178811,British-Indian Embassy Rd,,yes,yes,yes,yes,yes,24/7,https://www.ciwec-clinic.com/,"977-1-4424111, 4435232"
2027886569,चिरायु राष्ट्रिय अस्पताल तथा चिकित्सा संस्थान,27.6922104,85.3301616,,,yes,yes,yes,yes,yes,24/7,,
2027895182,इन्फेरलिटी सेन्टर,27.6903846,85.32902,,,yes,yes,yes,yes,yes,24/7,,
2077258831,सुब्बा मेडिकल सेन्टर प्रा. लि,27.7378197,85.3230411,,,yes,yes,yes,yes,yes,24/7,,
2121884151,कुन्फेन तिब्बती चिकित्सा,27.713065,85.3092366,,,no,yes,yes,yes,yes,24/7,,
2122386462,यती अस्पताल,27.7024512,85.2824017,,,yes,yes,yes,yes,yes,24/7,,
2153239616,Panauti Hospital,27.5923956,85.5169801,,,yes,yes,yes,yes,yes,24/7,,
2164877858,सार्वजनिक अस्पताल,27.6656582,85.3054073,,,yes,yes,yes,yes,yes,24/7,,
2165424701,नेपाल पशु अस्पताल,27.6948215,85.3112844,,,yes,yes,yes,yes,yes,24/7,,
2165424708,ब्लु क्रस अस्पताल,27.6937147,85.3152583,Tripura Marg,cardiology/others,yes,yes,yes,yes,yes,24/7,https://www.bluecross.com.np/,014262027
2218658273,दिव्या संजीवनी अस्पताल,27.7066149,85.2867623,,,yes,yes,yes,yes,yes,24/7,,
2236622338,भारोसा अस्पताल,27.6943238,85.3370557,,,yes,yes,yes,yes,yes,24/7,,
2282086109,नेपाल डायग्नोस्टिक सेन्टर प्रा. लि.,27.7010578,85.3116341,,,yes,no,no,yes,yes,24/7,,
2352666875,Buddha Minimal Access International (MAI) Center,27.6980033,85.304213,Guna Kam Dev Marga,,yes,no,no,no,no,24/7,,
2425005466,नेपाल प्रहरी अस्पताल,27.7310242,85.3235715,Maharajgunj,cardiology and others,yes,yes,yes,yes,yes,24/7,https://nph.nepalpolice.gov.np/,
2684770935,मोबाइल पशु चिकित्सा अस्पताल,27.6737417,85.3117739,,,yes,yes,yes,yes,yes,24/7,,
2857869822,तारिनी स्वास्थ्य केन्द्र,27.7049515,85.3084222,,,yes,yes,yes,yes,yes,24/7,,
3047240296,नेत्रधाम आँखा सेवा केन्द्र,27.6873782,85.3164579,,eye care,yes,yes,yes,yes,yes,24/7,,015551345
3640853145,नेपाल न्यासनल अस्पताल,27.6947253,85.2821685,,,yes,yes,yes,yes,yes,24/7,,
4132097725,सिटी अस्पताल,27.6909765,85.3246923,,,yes,yes,yes,yes,yes,24/7,,
4132510093,काठमाडौं मेडिकल कलेज,27.7015906,85.3275905,sinamangal(kathmandu),cardiology and other,yes,yes,yes,yes,yes,24/7,,
4225138790,Bhaktapur Hospital Emergency Block,27.6720774,85.4220862,Dudhpati,,yes,yes,yes,yes,yes,24/7,,
4243043791,मध्यपुर अस्पताल,27.6725806,85.3879984,,,yes,yes,yes,yes,yes,24/7,,
4264064753,Family Hospital,27.617975,85.3196166,,,yes,yes,yes,yes,yes,24/7,,
4393701590,संजीवनी हेल्थ केयर सेन्टर,27.6755499,85.3520244,Arniko Raj Marga,,yes,yes,yes,yes,yes,24/7,,+9779841245023
4537066892,चाइना हस्पिटल (पी) लिमिटेड,27.7204629,85.3622164,,,yes,yes,yes,yes,yes,Mo-Su 09:00-17:00,,01-4482275
4579894969,निदान अस्पताल प्रा.लि.,27.6773339,85.3217511,,,yes,yes,yes,yes,yes,24/7,http://www.nidanhospital.com,977-1-5531333
4599786089,अल्का अस्पताल प्रा. लि.,27.6698644,85.3096819,Ekata Tole,,yes,yes,yes,yes,yes,24/7,,015555555
4611193689,कपन अस्पताल,27.7347534,85.3602424,Chunikhel Marg,,yes,yes,yes,yes,yes,24/7,https://www.karunahospital.com.np/,015128201
4615993995,पीपुल्स डेंटल कलेज र अस्पताल,27.7190481,85.3090847,Ropeway Sadak,,yes,yes,yes,yes,yes,24/7,,
4648504195,ओम समाज अस्पताल,27.6863982,85.2591226,,,yes,yes,yes,yes,yes,24/7,,
4748269321,स्वाकोन अन्तर्राष्ट्रिय अस्पताल (काठमाडौं),27.7042102,85.3364085,रुद्रमती मार्ग,,yes,yes,yes,yes,yes,24/7,https://www.swaconhospital.com,+977 01 4462960;+977 01 4578105;+977 01 4570588
4795380222,प्रस्तावित इशान महिला तथा बालबालिका अस्पताल,27.7445649,85.3335285,,,yes,yes,yes,yes,yes,24/7,,
4795380223,पेडिअट्रिक्स,27.7365875,85.3306265,,,yes,yes,yes,yes,yes,24/7,,
4810801975,ग्रान्डी सिटी अस्पताल,27.711016,85.3147438,Dhapasi(kathmandu),cardiology/others,yes,yes,yes,yes,yes,24/7,,
4928572762,हाम्रो सहयात्री अस्पताल,27.6760051,85.3535501,Thimi-Biruwa Road,,yes,yes,yes,yes,yes,24/7,,
4933494321,Anandaban Training Center,27.5768323,85.3135768,,,yes,yes,yes,yes,yes,24/7,,
5043184624,आयुर्वेदिक,27.6684119,85.2752829,,,yes,yes,yes,yes,yes,24/7,,
5068560173,हिमालय उपचार केन्द्र,27.7291945,85.3706839,,,yes,yes,yes,yes,yes,24/7,,
5068574573,नेपाल मनमिन अस्पताल,27.6630188,85.3336444,,,yes,yes,yes,yes,yes,24/7,,
5239936321,मानसिक शरण,27.6830328,85.3115909,,,yes,yes,yes,yes,yes,24/7,,
5358434921,बिनायक अस्पताल,27.7350965,85.3130213,,,yes,yes,yes,yes,yes,24/7,,
5568194823,टेकु अस्पताल,27.6946731,85.3064884,,,yes,yes,yes,yes,yes,24/7,,
5715696859,सुरुची होम केयर,27.6937636,85.3377249,,,yes,yes,yes,yes,yes,24/7,,
5961692307,दक्षिण एसियाली पोलिक्लिनिक तथा निदान केन्द्र,27.7390611,85.3261844,,,yes,yes,yes,yes,yes,24/7,,
5961692317,मरिई स्टोप्स नेपाल,27.7348093,85.3174374,,,yes,yes,yes,yes,yes,24/7,,
5966565996,वेलनेस हस्पिटल प्रा. लि.,27.7424351,85.3378586,,,yes,yes,yes,yes,yes,24/7,,
6043144295,ह्वावे अन्तर्राष्ट्रिय अस्पताल,27.7130487,85.3452849,,,yes,yes,yes,yes,yes,24/7,,
6048829086,काठमाडौं सिटी अस्पताल,27.6990905,85.2810043,,cardiology/others,yes,yes,yes,yes,yes,24/7,,
6052315070,आरोग्य स्वस्थ्य सदन,27.6736946,85.3118401,,,yes,yes,yes,yes,yes,24/7,,
6053557886,अस्तङ्गा आयुर्वेद अस्पताल तथा अनुसन्धान केन्द्र प्रा. लि,27.6926261,85.2827749,,,yes,yes,yes,yes,yes,24/7,,
6065425312,मध्यपुर अस्पताल ठिमी,27.6722536,85.3881738,,,yes,yes,yes,yes,yes,24/7,,
6119458394,युनिभर्सल डेन्टल अस्पताल,27.6990484,85.280008,,,yes,yes,yes,yes,yes,24/7,,
6212383987,महेन्द्र नारायण निधि मेमोरियल अस्पताल,27.7375473,85.3253255,,,yes,yes,yes,yes,yes,24/7,,
6578542186,नर्भिक अन्तर्राष्ट्रिय स्वास्थ्य मूल्यांकन केन्द्र,27.6893068,85.3200625,Prasuti Griha Marg,cardiology/others,yes,yes,yes,yes,yes,24/7,https://www.norvichospital.com/,
6794555925,Family Beauty Parlour and Therapy Centre Pvt. Ltd.,27.7118011,85.3096796,J.P. Road,dermatology;traditional_chinese_medicine;chinese_medicine;dermatologist,no,yes,yes,yes,yes,24/7,,+977 9860469177
7076752191,गणेश मान सिंह मेमोरियल अस्पताल तथा अनुसन्धान केन्द्र,27.6614719,85.3188818,,,yes,yes,yes,yes,yes,24/7,,015530855
7081616685,स्टार अस्पताल,27.6816645,85.3028341,"Sanepa Height ,Ring Road",cardiology/others,yes,yes,yes,yes,yes,24/7,,015550197
7308290736,अन्नपूर्ण न्यूरोलोजिकल इन्स्टिच्युट तथा एलाइड साइन्स,27.6948191,85.3215837,,,yes,yes,yes,yes,yes,24/7,,
7786124691,नेचर केयर अस्पताल,27.688783,85.3341445,,,yes,yes,yes,yes,yes,24/7,,
7812122485,मैत्री सामुदायिक अस्पताल,27.7268923,85.3451431,,,yes,yes,yes,yes,yes,24/7,,
7817067188,टेस्ला डायग्नोस्टिक सेन्टर र फार्मेसी,27.7268113,85.3306804,,,yes,yes,yes,yes,yes,24/7,,
8023127285,मेट्रो अस्पताल,27.7398175,85.3371345,,,yes,yes,yes,yes,yes,24/7,,
8109802122,करुणा अस्पताल,27.7512928,85.3624523,Chunikhel Marg,,yes,yes,yes,yes,yes,24/7,https://www.karunahospital.com.np/,015128201
8173061117,नागरिक सामुदायिक शिक्षण अस्पताल,27.6735853,85.3749053,,,yes,yes,yes,yes,yes,24/7,,
8190684073,Cutis Care,27.6952816,85.337671,,,yes,yes,yes,yes,yes,24/7,,
8401828236,प्रसुती गृह,27.6894511,85.3187788,,,yes,yes,yes,yes,yes,24/7,,
8832647902,सम्पदा फार्मा/क्लिनिक,27.6881267,85.2864354,,,yes,yes,yes,yes,yes,24/7,,
9056740817,भिजन पोलिक्लिनिक,27.6754331,85.3448619,,,yes,yes,yes,yes,yes,24/7,,015100930
9213713419,समाज डेन्टल,27.6910912,85.3369386,Bibhuti Janak Marg,dental_oral_maxillo_facial_surgery,yes,yes,yes,yes,yes,24/7,,
9519208018,Sundarijal Swastha Chauki,27.7728016,85.4290501,,,yes,yes,yes,yes,yes,24/7,,
9526113217,काठमाडौं जीवन ज्योति अस्पताल,27.7181627,85.3489721,,,yes,yes,yes,yes,yes,24/7,,
9528649020,All Nepal Hospital,27.7359758,85.3175665,,,yes,yes,yes,yes,yes,24/7,,
9611991113,अव्युदय स्वास्थ्य सेवा केन्द्र,27.661574,85.3698829,Balkot-Biruwa Road,general,yes,yes,yes,yes,yes,24/7,,016638577
9614642353,सूर्यविनायक नगरपालिका हस्पिटल,27.6565102,85.391938,,,yes,yes,yes,yes,yes,24/7,,
9614642371,ब्रोदर हेल्थ केयर एण्ड डाइग्नोस्टिक सेन्टर,27.6697928,85.3855513,thimi-Biruwa Rd,general,yes,yes,yes,yes,yes,24/7,,9840011873
9622703382,Patan Healthcare,27.5992721,85.3243261,Satdobato — Tikabhairab,general,yes,yes,yes,yes,yes,24/7,,
9627135231,Sahari Swasthya Kendra,27.6860977,85.2392771,Tribhuvan Rajpath,,yes,yes,yes,yes,yes,24/7,,
9648136847,कीर्तिपुर सामुदायिक स्वास्थ्य केन्द्र,27.6734889,85.2812827,,,yes,yes,yes,yes,yes,24/7,,
9662478422,कीर्तिपुर आँखा अस्पताल र अनुसन्धान केन्द्र,27.6767736,85.2841802,,,yes,yes,yes,yes,yes,24/7,,
9719638257,"वत्सल्या प्राकृतिक आईवीएफ, फर्टिलिटी क्लिनिक",27.7155843,85.3252763,,,yes,yes,yes,yes,yes,"Mo-Fr, Su 09:30-16:30",http://www.vatsalya.com.np/,
9845843806,DI Skin Hospital And Referral Center,27.7501486,85.3450168,Golphutar Sadak,dermatology;transplant;endocrinology;plastic_surgery,yes,yes,yes,yes,yes,24/7,https://disharc.org/,+977-14721900
9914381748,रिदम न्यूरोसाइकियाट्री अस्पताल र अनुसन्धान केन्द्र,27.6694472,85.3098021,,,yes,yes,yes,yes,yes,24/7,,
9916636691,सोमलता पतंजलि आयुर्वेद केन्द्र प्रा.लि,27.7056935,85.3229192,,,yes,yes,yes,yes,yes,24/7,,+977 9860469177
9926734918,दिर्घजीवन स्वास्थ्य सेवा तथा अनुसन्धान केन्द्र प्रा. लि,27.6934255,85.3146971,,,yes,yes,yes,yes,yes,24/7,,
9933907318,समता अस्पताल,27.7164886,85.3572093,,,yes,yes,yes,yes,yes,24/7,,
9956485661,एपेक्स पोलिक्लिनिक एण्ड डाइगोनोस्टिक सेन्टर प्रा. लि,27.6750042,85.3527456,,,yes,yes,yes,yes,yes,24/7,,
9956505746,काठमाडौँ न्यूरो एण्ड जनरल अस्पताल,27.705956,85.3180007,,,yes,yes,yes,yes,yes,24/7,www.kathamanduneuro.com.np,"014233733,4233899"
9960940221,banepa dentel,27.6306702,85.5215853,,,yes,yes,yes,yes,yes,24/7,,
9967126985,एड्भान्स ओरल डेन्टल अस्पताल,27.6778355,85.347324,,,yes,yes,yes,yes,yes,24/7,,"014600202,4600723"
9969484880,काठमाडौं ईएनटी हस्पिटल प्रा. लि,27.7033226,85.3184414,,,yes,yes,yes,yes,yes,24/7,,014245554;4226730
10007887784,अल नेपाल अस्पताल,27.7359482,85.3177058,,,yes,yes,yes,yes,yes,24/7,,"01-4989905, 0989906, 4953031"
10009815103,आयानस अस्पताल,27.763547,85.3306848,,,yes,yes,yes,yes,yes,24/7,,
10013199477,टोखा चन्देश्वरी अस्पताल,27.7701596,85.3295466,Golphutar Sadak,,yes,yes,yes,yes,yes,24/7,,
10013199480,नेपाल अाखा अस्पताल,27.7687021,85.3301942,,,yes,yes,yes,yes,yes,24/7,,
10016451848,इशान बाल तथा महिला अस्पताल,27.7481329,85.3369164,,,yes,yes,yes,yes,yes,24/7,,"01-4959560, 01-5910947, 01-5910948"
10023832445,क्रिस्टल डेन्टल अस्पताल,27.6741089,85.3748745,,,yes,yes,yes,yes,yes,24/7,,
10024492600,नेपाल कोरिया मैत्री अस्पताल,27.6736997,85.3795337,,,yes,yes,yes,yes,yes,24/7,,
10050423448,एनआरएन स्वास्थ्य सेवा प्रा. लि.,27.6898674,85.3826788,,,yes,yes,yes,yes,yes,24/7,,
10121388641,कान्तिपुर अस्पताल,27.68588,85.3452223,,,yes,yes,yes,yes,yes,24/7,,014111627;014111858
10121417227,Pics Nepal,27.6830415,85.3473448,,,yes,yes,yes,yes,yes,24/7,,015199735
10154815006,कल्पना स्वास्थ्य सेवा केन्द्र,27.7670427,85.3006201,,,yes,yes,yes,yes,yes,24/7,,
10198512117,अलिफ स्वास्थ सेवा केन्द्र,27.7616933,85.317815,,,yes,yes,yes,yes,yes,24/7,http://www.alifphama.com.np,9851339786
10214617417,जिल्ला आयुर्वेद स्वास्थ्य केन्द्र,27.6974971,85.3491139,,,yes,yes,yes,yes,yes,24/7,,
10230034942,Sadbhav Community Hospital,27.6538611,85.5113525,Nala,,yes,yes,yes,yes,yes,24/7,,11411113
10230034943,Spinal Injury Rehabilitation Center,27.636392,85.492346,Bhaisipati,,yes,yes,yes,yes,yes,24/7,,11663058
10230034944,Bhomi Hospital,27.6325128,85.5090439,Pulbazar,,yes,yes,yes,yes,yes,24/7,,11665413
10230034945,Krishna Prasad Hospital,27.6294156,85.5246921,Chardobato,,yes,yes,yes,yes,yes,24/7,,11664332
10230034946,Merryland Heath Care,27.6311524,85.5178761,Teendobato,,yes,yes,yes,yes,yes,24/7,,11665370
10230034948,Scheer Memorial Hospital,27.63342,85.5273593,Ghokechaur,,yes,yes,yes,yes,yes,24/7,,11661111
10294835214,लेट मी इन,27.7372671,85.3338482,,,yes,yes,yes,yes,yes,24/7,,
10305102342,ओम हस्पिटल एण्ड रिसर्च सेन्टर प्रा. लि,27.7214203,85.3448029,Chabahil Road,,yes,yes,yes,yes,yes,24/7,,
10610495708,ओरिसन मेडिकल हल,27.7071767,85.3789969,,,yes,yes,yes,yes,yes,Mo-Su 09:00-18:00,,
10610495807,दिर्गजीवन मेडिकल हल,27.7067293,85.3790376,,,yes,yes,yes,yes,yes,Mo-Su 09:00-18:00,,
10614867910,आधारभूत स्वास्थ्य केन्द्र,27.7071685,85.3793921,Piple bot,,yes,yes,yes,yes,yes,Mo-Su 09:00-18:00,,
10629351305,मेड स्टार हेल्थ केयर,27.6963905,85.3779141,,,yes,yes,yes,yes,yes,Mo-Su 07:00-21:00,,
10724948065,Kirtipur Phect Hospital,27.6825389,85.2737269,,,yes,yes,yes,yes,yes,24/7,,
11701254293,Stupa community hospital,27.7203029,85.3512059,,,yes,yes,yes,yes,yes,24/7,,
11949714809,Seer Imaging and Diagnostic Center Banepa,27.6324687,85.5183654,,,yes,yes,yes,yes,yes,24/7,,
12247587057,Golfutar Eye Hospital,27.7515215,85.3456867,,ophthalmology,yes,yes,yes,yes,yes,24/7,,
12318212001,भ्याली अस्पताल (पुतलीसडक),27.7052494,85.3232309,पुतली सडक,,yes,yes,yes,yes,yes,24/7,,+977 01 4520224
12589388685,Derma Clinic,27.73854,85.3263906,,dermatology;dermatovenereology;allergology,yes,yes,yes,yes,yes,24/7,,
112117062,National Trauma Center,27.7042997,85.3130672,,,yes,yes,yes,yes,yes,24/7,,
120435385,Tilganga Institute of Opthalmology,27.7053593,85.350669,,,yes,no,yes,no,yes,24/7,,
124304055,Norvic Hospital,27.6899666,85.3191986,,,yes,yes,yes,yes,yes,24/7,,
124304057,Paropakar Maternity Hospital,27.6893461,85.318916,,,yes,yes,yes,yes,yes,24/7,,
124480166,एभरेष्ट अस्पताल (नयाँ बानेश्वर),27.6884948,85.3328992,मदन भण्डारी पथ,,yes,yes,yes,yes,yes,24/7,https://everesthospital.org.np,+977 01 4795177
138451637,Ayurveda Hospital,27.7078298,85.3053942,,,yes,yes,yes,yes,yes,24/7,,
163599016,Human Rehabilitation and Development Centre,27.62863,85.5108328,,,yes,yes,yes,yes,yes,24/7,,
170428974,Animal Hospital,27.6733782,85.3119311,,,yes,yes,yes,yes,yes,24/7,,
176768699,Upendra Devkota Memorial - National Institute of Neurological and Allied Sciences,27.7487097,85.3459614,,neurology;neurosurgery;pathology,yes,yes,yes,yes,yes,24/7,https://neuro.org.np/,+977-014373850
176772311,Shahid Gangalal National Heart Centre,27.745821,85.3436443,,cardiology,yes,yes,yes,yes,yes,24/7,https://www.sgnhc.org.np/,+977-014371374
178927729,Alka Hospital,27.6745553,85.3150906,,,yes,yes,yes,yes,yes,24/7,,
179243141,Ayurvedic Hospital,27.6767924,85.2893348,,,yes,yes,yes,yes,yes,24/7,,
179243142,Ayurvedic Teaching Hospital (OPD),27.6757828,85.2901942,,,yes,yes,yes,yes,yes,24/7,,
179469145,BioMed Hospital,27.7226929,85.3310512,,,yes,yes,yes,no,no,24/7,,
181427346,ManMohan Cardiothoracic Vascular & Transplant Center,27.7358213,85.3287091,,cardiology,yes,yes,yes,yes,yes,24/7,,
181575432,Mental Hospital,27.6679616,85.3224061,,,yes,yes,yes,yes,yes,24/7,,
185943152,Nepal Eye Hospital,27.6930867,85.3137018,,,yes,yes,no,no,yes,24/7,,
185943727,National Tuberculosis Center,27.6738814,85.3826303,,,yes,no,no,no,yes,24/7,,
186777941,Khopasi Health Post,27.564467,85.5362561,,,no,yes,yes,yes,yes,24/7,,
190889375,Om Hospital and Research Center,27.7213347,85.3448669,,cardiology/other,yes,yes,yes,yes,yes,24/7,,
194899597,Spinal Injury Rahabilitation Center,27.6374828,85.4920786,,,yes,yes,yes,yes,yes,24/7,,
198032237,Nepal Medical College and Teaching Hospital,27.7334979,85.3805787,,,yes,yes,yes,yes,yes,24/7,,
198407525,Nepal Hypnosis,27.71759,85.334109,Thatu Marg,,yes,yes,yes,yes,yes,24/7,,
201380503,Swatha Parichyan,27.7056296,85.3250895,,,yes,yes,yes,yes,yes,24/7,,
205438152,Ayurvedic Hospital,27.6759721,85.289853,,,yes,yes,yes,yes,yes,24/7,,
205718505,Mahendra Narayan Nidhi Memorial Hospital,27.705757,85.3452487,,,yes,yes,yes,yes,yes,24/7,,
206902746,Shri Tribhuwan Chandra Sainik Hospital,27.7036878,85.3131476,,,yes,yes,yes,yes,yes,24/7,,
207412810,Suvechhya Hospital,27.7090822,85.2810899,,,yes,yes,yes,yes,yes,24/7,,
208175247,Janamaitri Hospital,27.7281844,85.3033195,,,yes,yes,yes,yes,yes,24/7,,
208681773,Nepal Plastic Surgery Hospital,27.6434615,85.3377866,,,yes,no,yes,no,yes,24/7,,
209874600,Mental hospital,27.7355736,85.4155938,,,yes,yes,yes,yes,yes,24/7,,
211436969,Laliguras Hospital,27.6583348,85.3214641,,,yes,no,yes,no,yes,24/7,,
211750710,Sumeru Hospital,27.6448249,85.325761,,,yes,yes,yes,yes,yes,24/7,https://sumeruhospital.org.np/,+977 15275377
211858815,Shuvatara Hospital,27.6615713,85.318803,,,yes,yes,yes,yes,yes,24/7,,
211897513,Natural Health Hospital,27.6958923,85.3455553,,,yes,no,no,no,no,24/7,,
215554749,Helping Hands Community Hospital,27.7174644,85.3462021,,,yes,yes,yes,yes,yes,24/7,,
216443708,Nepal Beijing Friendship Hospital,27.7314474,85.3300149,,,yes,no,yes,no,yes,24/7,,01-4413043
216607338,Welcare Hospital and Research Centre,27.7079435,85.3352598,,,yes,yes,yes,yes,yes,24/7,,01-4426135
216705743,Maruti Children Hospital,27.735303,85.3286225,,,yes,no,no,no,yes,24/7,,
218203441,ग्रीन सिटी अस्पताल (बसुन्धरा),27.7372446,85.3227706,Kathmandu Ringroad,,yes,yes,yes,yes,yes,24/7,https://www.gch.com.np,+977 01 4981133;+977 01 4983169;+977 01 4952248
218984210,New Life Health Care Pvt. Ltd.,27.7143403,85.3499966,,,yes,no,no,no,no,24/7,,
219072866,mhf,27.7536881,85.3301453,,,yes,yes,yes,yes,yes,24/7,,
219973934,Nepal Korea Friendship Hospital,27.6788728,85.383778,,,yes,no,yes,yes,yes,24/7,,
220212853,Samaj Dental Hospital,27.7257097,85.3576071,,,yes,no,no,no,yes,24/7,,
220213917,Shechan Clinic & Hospice,27.7245571,85.3599134,,,yes,no,no,no,yes,24/7,,
220316414,Punarjiban Hospital,27.6726044,85.3407666,,,yes,no,no,no,no,24/7,,01-5006115
220336145,Madhyapur Hospital,27.6731334,85.3868223,,,yes,yes,yes,yes,yes,24/7,,
220986127,Gandhi Samudayik Hospital,27.6967142,85.3684021,,,yes,no,no,no,yes,24/7,,
221047767,Kathmandu E.N.T. Hospital and Research Center,27.7036968,85.3181869,,,yes,yes,yes,yes,yes,24/7,,
221295252,All Nepal Hospital,27.7345265,85.3174599,,cardiology and other,yes,yes,yes,yes,yes,24/7,,
221295256,अन्तर्राष्ट्रिय मैत्री बाल अस्पताल (महाराजगञ्ज),27.7312886,85.3263639,लाजिम्पाट सडक,,yes,yes,yes,yes,yes,24/7,https://www.ifch.com.np,+977 01 4515461
221344946,Sarvanga Hospital,27.6856246,85.3165852,,,yes,yes,yes,yes,yes,24/7,,
221353886,Blue Lotus Hospital,27.6942259,85.3106073,,,yes,no,yes,no,no,24/7,,
221639848,Rhythm Neuropsychiatry Hospital & Research Center,27.6693103,85.30967,,,yes,yes,yes,yes,yes,24/7,,
221694253,Kathmandu Model Hospital,27.7026968,85.3201189,,,yes,yes,yes,yes,yes,24/7,,
221727449,Kathmandu Model Hospital Dental Department,27.7065103,85.3181652,,,yes,no,no,no,yes,24/7,,
221824840,Kundalini Hospital,27.6795847,85.3063158,,,yes,yes,no,yes,no,24/7,,
221824844,Sumeru City Hospital,27.6760179,85.3148149,,,yes,no,yes,no,yes,24/7,,
222136578,Vayodha Hospital,27.6842383,85.2982933,,,yes,yes,yes,yes,yes,24/7,,
222180172,Kirtipur Hospital,27.6825633,85.2737393,,,yes,no,yes,no,yes,24/7,,
222724349,shiva jyoti hospital & research center,27.6855828,85.2980011,,,yes,yes,yes,yes,yes,24/7,,
222779972,Kantipur Hospital,27.6855656,85.3448179,,,yes,yes,yes,yes,yes,24/7,,
222864245,Summit Hospital,27.6741534,85.3596364,,,yes,yes,yes,yes,yes,24/7,,016631736
223033987,Midat Hospital,27.6667865,85.3248821,,,yes,yes,yes,yes,yes,24/7,,
223275409,Grande International Hospital,27.7529192,85.3252409,11 16 16,,yes,yes,yes,yes,yes,24/7,https://www.grandehospital.com/,+977 1 5159266; +977 1 5159267; +977 9801202550
223502956,People's Life Care Hospital,27.7275251,85.4607057,,,yes,no,yes,no,yes,24/7,,
223503867,Sahid Memorial Hospital,27.6945079,85.2811325,,,yes,yes,yes,yes,yes,24/7,,
223503869,OM Samaj Hospital,27.6891458,85.2709256,,,yes,yes,yes,yes,yes,24/7,,
223503879,Sahid Memorial Hospital,27.6954902,85.2809333,,,yes,yes,yes,yes,yes,24/7,,
223504501,Tranquiliy Hospital and Research Center,27.6517246,85.3299517,,,yes,no,no,no,no,24/7,,
224724636,Diyas Hospital,27.6527637,85.3045908,,,yes,yes,yes,yes,yes,24/7,,
225648689,Bharjabaharahi Hospital,27.6038515,85.3278096,,,yes,no,yes,no,yes,24/7,,
225659856,Centre For Liver Disease,27.6899228,85.3286739,,,yes,no,no,no,no,24/7,,
225660491,Himal Hospital,27.7102329,85.3282098,,,yes,yes,yes,yes,yes,24/7,,
226284392,Kathmandu Hospital,27.6426578,85.3380966,,,yes,no,no,no,yes,24/7,,
226284409,Harisiddhi Community Hospital,27.637224,85.341898,,,yes,yes,yes,yes,yes,24/7,,
226335431,Nepal orthopaedic Hospital,27.7201552,85.3811912,,,yes,yes,yes,yes,yes,24/7,,
226429180,Chest Hospital,27.6992564,85.2971035,,,yes,no,yes,no,yes,24/7,,
226429181,Shree Jyoti Hospital and Research Center,27.6985437,85.2974366,,,yes,yes,yes,no,yes,24/7,,
226429182,Spark Health Homes Hospital,27.6976466,85.2947666,,,yes,no,no,no,yes,24/7,,
226439738,Kathmandu Hospital,27.6942716,85.3110199,,,yes,yes,yes,yes,yes,24/7,,
226472197,Nilam Hospital,27.688906,85.250524,,,yes,yes,yes,yes,yes,24/7,,
226690705,National Kidney Center,27.7245541,85.2957645,,,yes,yes,yes,yes,yes,24/7,,
226831608,National Hospital and Cancer Research Center,27.6733887,85.3147244,,cancer,yes,no,yes,no,yes,24/7,,
226835291,Chinese People Hospital Private Limited,27.7204263,85.3618191,,,yes,no,no,no,yes,24/7,,
226852863,Hamro Sahayatri Hosp and Birthing Center,27.6765548,85.3526039,,,yes,no,yes,no,yes,24/7,,
226885065,Medicare National Hospital and Research Center,27.7184247,85.3463804,Chabahil,cardiology/other,yes,yes,yes,yes,yes,24/7,www.medicarenepal.com,+977-1-4467067
226974435,Venus International Hospital,27.6972368,85.3376008,,,yes,yes,yes,yes,yes,24/7,,
226978803,Ayush Hospital,27.6862861,85.33588,,,yes,no,no,no,no,24/7,,
227085228,Human Development Community Service(HDCS),27.6590518,85.2995533,,,no,yes,yes,yes,yes,24/7,,
227115386,Nobel Hospital,27.698195,85.3482018,,,yes,yes,yes,yes,yes,24/7,,
227266290,Shankarapur Hospital,27.7214978,85.3765643,,,yes,yes,yes,yes,yes,24/7,,
227893818,B & B Hospital,27.6650525,85.3294439,"Ring Road gwarkho,chowk",cardiology/others,yes,yes,yes,yes,yes,24/7,https://www.bbhospital.com.np/,
227893819,Global Hospital,27.6665858,85.3330007,,,yes,yes,yes,yes,yes,24/7,,
227894763,"BP Eye Foundation, Children's Hospital for Eye, ENT and Rehabilitation Services (CHEERS)",27.6706634,85.3535534,,eye health,yes,no,yes,no,yes,24/7,,
227939182,Shanti Sewa Griha,27.704607,85.3508873,,,yes,no,no,no,no,24/7,https://shanti-leprahilfe.de/en/projects/medicine/hape-kerkeling-clinic/,
229128707,People's Dental College & Hospital,27.7244571,85.3066029,,dantal health,yes,no,yes,no,yes,24/7,,
229129612,Metro Radiology and Imaging,27.7153874,85.326096,,,yes,no,no,no,no,24/7,,
230055223,Dhulikhel Hospital,27.6167309,85.5478246,,,yes,yes,yes,yes,yes,24/7,,
230055228,Pediatrics and Gyn/Obs,27.6162511,85.5477276,,,yes,yes,yes,yes,yes,24/7,,
231049689,College of Dental Science and Hospital,27.7338138,85.3802709,,,yes,no,no,no,yes,24/7,,
231628208,Life Care Hospital,27.6994678,85.3104552,,,yes,yes,yes,yes,yes,24/7,,
231630359,Capital Hospital,27.7027993,85.3217439,,,yes,no,yes,no,yes,24/7,,
239977016,Nepal Bharat Maitri Hospital,27.7115501,85.3455948,dakshina murti marga,,yes,yes,yes,yes,yes,24/7,,
240358404,Swatha Parichyan,27.7060412,85.3249615,,,yes,yes,yes,yes,yes,24/7,,
244966631,Kirtipur Burn Hospital,27.6817453,85.2732357,,,yes,yes,yes,yes,yes,24/7,,
245265728,Nutrition Rehabilitation Home (NRH),27.6353477,85.3154498,Sunkothi to Nakhu river Road,,yes,yes,yes,yes,yes,24/7,,"+977 01 5574817, 5574818"
262821660,Arayoga Hospital,27.673599,85.3117756,,,yes,yes,yes,yes,yes,24/7,,
301884716,National Ayurvedic Research and Training Center,27.6767161,85.2880095,,,yes,yes,yes,yes,yes,24/7,,
302696153,KIST hospital,27.6621707,85.3341523,,,yes,yes,yes,yes,yes,24/7,,
305050136,UNIVERSAL COLLEGE OF MEDICAL SCIENCES & UCMS COLLEGE OF DENTAL SURGERY,27.706704,85.3179811,,,yes,yes,yes,yes,yes,24/7,,01-4240384
341520936,Cancer Hospital,27.6337166,85.5271071,,cancer,yes,yes,yes,yes,yes,24/7,,
341532571,Motherland Hospital,27.6893265,85.3599162,Sinamangal Marga,,yes,yes,yes,yes,yes,24/7,,
342319745,Valley Maternity Nursing Home,27.7053006,85.3226483,,,yes,yes,yes,yes,yes,24/7,,
343650784,मेघा अस्पताल,27.675349,85.3024474,,,yes,yes,yes,yes,yes,24/7,,
343949381,health post,27.5782794,85.5006401,,,yes,yes,yes,yes,yes,24/7,,
344541501,Banepa Hospital,27.6328186,85.5184947,,,yes,yes,yes,yes,yes,24/7,,
344983946,Shankarapur Hospital,27.7215155,85.3780435,,,yes,yes,yes,yes,yes,24/7,,
372781590,Binayak Hospital,27.7363537,85.3180086,,,yes,yes,yes,yes,yes,24/7,,
395026898,Kapan Hospital,27.7336364,85.352264,,,yes,yes,yes,yes,yes,24/7,,
403031780,Nepal Cancer Hospital,27.6434652,85.3388989,,,yes,yes,yes,yes,yes,24/7,,
429577147,Sheer Memorial Adventist Hospital,27.6329841,85.5277023,,,yes,yes,yes,yes,yes,24/7,,
454234690,Nidan Hospital,27.6790886,85.3157015,,,yes,yes,yes,yes,yes,24/7,,
456506568,Kathmandu Cancer Center,27.669452,85.4659796,BHAKTAPUR NALA ROAD(GANESHMAN MARGA),,no,yes,yes,yes,yes,24/7,https://www.kccrc.org/,+97715091629
499271782,Anandaban Hospital,27.5766875,85.3154277,,leprosy,yes,yes,yes,yes,yes,24/7,,
501780558,Chirayu Hospital,27.7414392,85.3340005,sundra nagar marga,,yes,yes,yes,yes,yes,24/7,,
501867918,The Skin Hospital,27.7367793,85.3332262,Maharajgunj Road,,yes,yes,yes,yes,yes,24/7,,
501873471,Metro Ktm Hospital,27.7394837,85.3370092,maharajgunj marga,,yes,yes,yes,yes,yes,24/7,,014721514
502280602,Gautam Buddha International Cardiac hospital,27.6747518,85.341301,amarawati marga,,yes,yes,yes,yes,yes,6:00-18:00,,
520758403,BP Smriti Hospital,27.7374053,85.3261857,,,yes,yes,yes,yes,yes,24/7,,
546246875,नेपाल मेडिसिटी अस्पताल (नख्खु),27.6624155,85.3028035,Nakhu corridor Road Project 2,,yes,yes,yes,yes,yes,24/7,https://www.nepalmediciti.com,+977 01 4217766
695917198,Patan Hospital,27.6684414,85.3204193,,,yes,yes,yes,yes,yes,24/7,,
842195570,Mulpani Primary Health Center,27.7143578,85.3930567,Way to Jorpati,,yes,yes,yes,yes,yes,24/7,,01-4153593
855951184,Gothatar Health Post,27.7081035,85.371503,,,yes,yes,yes,yes,yes,24/7,,
917444726,Bishnudevi Hospital,27.680561,85.2766365,,,yes,yes,yes,yes,yes,24/7,,01-4333078
988003780,Gothatar Health Post,27.7080514,85.3716153,,,yes,yes,yes,yes,yes,24/7,,
1173885385,Ishan Children and Women's Hospital (P) Ltd.,27.7446241,85.3328423,,,yes,yes,yes,yes,yes,24/7,https://ishanhospital.com.np/,014354537
1210702139,sumit hospital,27.7274695,85.3228693,रानी देवी मार्ग,,yes,yes,yes,yes,yes,24/7,,
1380918055,KMC Duwakot Hospital,27.6841041,85.4107736,Changunarayan,cardiology/other,yes,yes,yes,yes,yes,24/7,kmc.edu.np,01-6616781/01-6611757
2421673,TU Teaching Hospital,27.7361127,85.3299868,,,yes,yes,yes,yes,yes,24/7,,
2499492,SAARC Tuberculosis and HIV/AIDS Center,27.673851,85.3810878,,,yes,yes,yes,yes,yes,24/7,,
2703533,Military Hospital,27.7110898,85.291196,,,yes,yes,yes,yes,yes,24/7,,
2927139,Stupa Community Hospital,27.7207281,85.3648256,,,yes,no,yes,no,yes,24/7,,
4012472,National Ayurvedic Research and Training Center,27.6766721,85.2880131,,,yes,yes,yes,yes,yes,24/7,,
10953873,T.U. Teaching Hospital,27.7359534,85.3305587,,cardiology and other,yes,yes,yes,yes,yes,24/7,,
10953874,Bir Hospital,27.7051847,85.313361,कान्ति पथ,cardiology and other,yes,yes,yes,yes,yes,24/7,,
10953875,KIST hospital,27.6631067,85.3350949,,,yes,yes,yes,yes,yes,24/7,,
10953876,Civil Service Hospital,27.6864427,85.3392003,,,yes,yes,yes,yes,yes,24/7,,
10953877,काठमाडौं मेडिकल कलेज शिक्षण अस्पताल (सिनामंगल),27.6960875,85.3535422,सिनामंगल सडक,,yes,yes,yes,yes,yes,24/7,https://kmc.edu.np,+977 01 4497104;+977 01 4598583;+977 01 4597062;+977 01 4576152;+977 01 4469064
